[{"OBJECT_NAME":"SITRO-AIS 20","OBJECT_ID":"2024-199Z","EPOCH":"2026-03-09T22:53:15.769536","MEAN_MOTION":14.97385198,"ECCENTRICITY":0.00069441,"INCLINATION":97.3309,"RA_OF_ASC_NODE":274.6556,"ARG_OF_PERICENTER":50.5148,"MEAN_ANOMALY":309.6689,"EPHEMERIS_TYPE":0,"CLASSIFICATION_TYPE":"U","NORAD_CAT_ID":61758,"ELEMENT_SET_NO":999,"REV_AT_EPOCH":12028,"BSTAR":0.00032349417,"MEAN_MOTION_DOT":3.708e-5,"MEAN_MOTION_DDOT":0},{"OBJECT_NAME":"STARLINK-36167","OBJECT_ID":"2025-293J","EPOCH":"2026-03-09T16:00:03.000096","MEAN_MOTION":14.98353371,"ECCENTRICITY":0.00035327,"INCLINATION":69.9998,"RA_OF_ASC_NODE":94.3623,"ARG_OF_PERICENTER":273.6486,"MEAN_ANOMALY":249.1448,"EPHEMERIS_TYPE":0,"CLASSIFICATION_TYPE":"U","NORAD_CAT_ID":67011,"ELEMENT_SET_NO":999,"REV_AT_EPOCH":533,"BSTAR":-0.0036450478,"MEAN_MOTION_DOT":-0.00043345,"MEAN_MOTION_DDOT":0}]
